[{"OBJECT_NAME":"GEOSCAN 3 (RS92S3)","OBJECT_ID":"2025-155T","EPOCH":"2026-03-09T22:52:10.587648","MEAN_MOTION":15.31696739,"ECCENTRICITY":0.00068078,"INCLINATION":97.4455,"RA_OF_ASC_NODE":37.9971,"ARG_OF_PERICENTER":154.1387,"MEAN_ANOMALY":206.0196,"EPHEMERIS_TYPE":0,"CLASSIFICATION_TYPE":"U","NORAD_CAT_ID":64893,"ELEMENT_SET_NO":999,"REV_AT_EPOCH":6564,"BSTAR":0.00078414081,"MEAN_MOTION_DOT":0.00023985,"MEAN_MOTION_DDOT":0},{"OBJECT_NAME":"STARLINK-34906","OBJECT_ID":"2025-224Q","EPOCH":"2026-03-09T04:01:11.337312","MEAN_MOTION":15.30179574,"ECCENTRICITY":9.809e-5,"INCLINATION":53.1626,"RA_OF_ASC_NODE":13.8184,"ARG_OF_PERICENTER":109.5738,"MEAN_ANOMALY":250.5369,"EPHEMERIS_TYPE":0,"CLASSIFICATION_TYPE":"U","NORAD_CAT_ID":65896,"ELEMENT_SET_NO":999,"REV_AT_EPOCH":2479,"BSTAR":0.00078284323,"MEAN_MOTION_DOT":0.00022883,"MEAN_MOTION_DDOT":0}]
